{"type":"FeatureCollection","metadata":{"source":"https://www.ais.fi/eaip/06 AUG 2026_2026_08_06/eAIP/","airacCycle":"06 AUG 2026_2026_08_06","effective":"2026-08-06","generated":"2026-08-13","attribution":"Aerodromes © Fintraffic ANS / Finnish eAIP","note":"Not for navigation. Aerodrome reference points only, from AD 2.2; consult the current AIP and NOTAMs for flight planning."},"features":[{"type":"Feature","properties":{"icao":"EFAA","name":"AAVAHELUKKA"},"geometry":{"type":"Point","coordinates":[23.97167,67.60361]}},{"type":"Feature","properties":{"icao":"EFAH","name":"AHMOSUO"},"geometry":{"type":"Point","coordinates":[25.75222,64.89528]}},{"type":"Feature","properties":{"icao":"EFAL","name":"ALAVUS"},"geometry":{"type":"Point","coordinates":[23.57333,62.55472]}},{"type":"Feature","properties":{"icao":"EFET","name":"ENONTEKIÖ"},"geometry":{"type":"Point","coordinates":[23.4275,68.36444]}},{"type":"Feature","properties":{"icao":"EFEU","name":"EURA"},"geometry":{"type":"Point","coordinates":[22.20139,61.11611]}},{"type":"Feature","properties":{"icao":"EFFO","name":"FORSSA"},"geometry":{"type":"Point","coordinates":[23.64556,60.80194]}},{"type":"Feature","properties":{"icao":"EFGE","name":"GENBÖLE"},"geometry":{"type":"Point","coordinates":[22.52194,60.08694]}},{"type":"Feature","properties":{"icao":"EFHA","name":"HALLI"},"geometry":{"type":"Point","coordinates":[24.78917,61.85639]}},{"type":"Feature","properties":{"icao":"EFHK","name":"HELSINKI-VANTAA"},"geometry":{"type":"Point","coordinates":[24.96333,60.31722]}},{"type":"Feature","properties":{"icao":"EFHL","name":"HAILUOTO"},"geometry":{"type":"Point","coordinates":[24.70472,64.96972]}},{"type":"Feature","properties":{"icao":"EFHM","name":"HÄMEENKYRÖ"},"geometry":{"type":"Point","coordinates":[23.07417,61.69028]}},{"type":"Feature","properties":{"icao":"EFHN","name":"HANKO"},"geometry":{"type":"Point","coordinates":[23.08222,59.84556]}},{"type":"Feature","properties":{"icao":"EFHP","name":"HAAPAVESI"},"geometry":{"type":"Point","coordinates":[25.50417,64.11306]}},{"type":"Feature","properties":{"icao":"EFHV","name":"HYVINKÄÄ"},"geometry":{"type":"Point","coordinates":[24.88111,60.65444]}},{"type":"Feature","properties":{"icao":"EFII","name":"IISALMI"},"geometry":{"type":"Point","coordinates":[27.12222,63.63194]}},{"type":"Feature","properties":{"icao":"EFIK","name":"KIIKALA"},"geometry":{"type":"Point","coordinates":[23.65111,60.46278]}},{"type":"Feature","properties":{"icao":"EFIM","name":"IMMOLA"},"geometry":{"type":"Point","coordinates":[28.90361,61.24972]}},{"type":"Feature","properties":{"icao":"EFIT","name":"KITEE"},"geometry":{"type":"Point","coordinates":[30.07361,62.16611]}},{"type":"Feature","properties":{"icao":"EFIV","name":"IVALO"},"geometry":{"type":"Point","coordinates":[27.41389,68.61083]}},{"type":"Feature","properties":{"icao":"EFJM","name":"JÄMIJÄRVI"},"geometry":{"type":"Point","coordinates":[22.71611,61.77861]}},{"type":"Feature","properties":{"icao":"EFJO","name":"JOENSUU"},"geometry":{"type":"Point","coordinates":[29.62444,62.65889]}},{"type":"Feature","properties":{"icao":"EFJY","name":"JYVÄSKYLÄ"},"geometry":{"type":"Point","coordinates":[25.67278,62.40083]}},{"type":"Feature","properties":{"icao":"EFKA","name":"KAUHAVA"},"geometry":{"type":"Point","coordinates":[23.05139,63.12417]}},{"type":"Feature","properties":{"icao":"EFKE","name":"KEMI-TORNIO"},"geometry":{"type":"Point","coordinates":[24.58472,65.77917]}},{"type":"Feature","properties":{"icao":"EFKG","name":"KUMLINGE"},"geometry":{"type":"Point","coordinates":[20.80472,60.24694]}},{"type":"Feature","properties":{"icao":"EFKH","name":"KUHMO"},"geometry":{"type":"Point","coordinates":[29.43861,64.1125]}},{"type":"Feature","properties":{"icao":"EFKI","name":"KAJAANI"},"geometry":{"type":"Point","coordinates":[27.6875,64.28417]}},{"type":"Feature","properties":{"icao":"EFKJ","name":"KAUHAJOKI"},"geometry":{"type":"Point","coordinates":[22.39111,62.46361]}},{"type":"Feature","properties":{"icao":"EFKK","name":"KOKKOLA-PIETARSAARI"},"geometry":{"type":"Point","coordinates":[23.13917,63.72028]}},{"type":"Feature","properties":{"icao":"EFKM","name":"KEMIJÄRVI"},"geometry":{"type":"Point","coordinates":[27.15722,66.71583]}},{"type":"Feature","properties":{"icao":"EFKO","name":"KALAJOKI"},"geometry":{"type":"Point","coordinates":[23.82667,64.22861]}},{"type":"Feature","properties":{"icao":"EFKR","name":"KÄRSÄMÄKI"},"geometry":{"type":"Point","coordinates":[25.74361,63.98917]}},{"type":"Feature","properties":{"icao":"EFKS","name":"KUUSAMO"},"geometry":{"type":"Point","coordinates":[29.23194,65.99028]}},{"type":"Feature","properties":{"icao":"EFKT","name":"KITTILÄ"},"geometry":{"type":"Point","coordinates":[24.84806,67.69861]}},{"type":"Feature","properties":{"icao":"EFKU","name":"KUOPIO"},"geometry":{"type":"Point","coordinates":[27.79444,63.00861]}},{"type":"Feature","properties":{"icao":"EFKV","name":"KIVIJÄRVI"},"geometry":{"type":"Point","coordinates":[25.12417,63.12528]}},{"type":"Feature","properties":{"icao":"EFKY","name":"KYMI"},"geometry":{"type":"Point","coordinates":[26.89611,60.57139]}},{"type":"Feature","properties":{"icao":"EFLA","name":"LAHTI-VESIVEHMAA"},"geometry":{"type":"Point","coordinates":[25.69306,61.14417]}},{"type":"Feature","properties":{"icao":"EFLN","name":"LIEKSA-NURMES"},"geometry":{"type":"Point","coordinates":[29.62917,63.51194]}},{"type":"Feature","properties":{"icao":"EFLP","name":"LAPPEENRANTA"},"geometry":{"type":"Point","coordinates":[28.14861,61.04583]}},{"type":"Feature","properties":{"icao":"EFMA","name":"MARIEHAMN"},"geometry":{"type":"Point","coordinates":[19.89639,60.12194]}},{"type":"Feature","properties":{"icao":"EFME","name":"MENKIJÄRVI"},"geometry":{"type":"Point","coordinates":[23.51889,62.94667]}},{"type":"Feature","properties":{"icao":"EFMI","name":"MIKKELI"},"geometry":{"type":"Point","coordinates":[27.2,61.68639]}},{"type":"Feature","properties":{"icao":"EFMN","name":"MÄNTSÄLÄ"},"geometry":{"type":"Point","coordinates":[25.50889,60.5725]}},{"type":"Feature","properties":{"icao":"EFNS","name":"SAVIKKO"},"geometry":{"type":"Point","coordinates":[24.83167,60.52]}},{"type":"Feature","properties":{"icao":"EFNU","name":"NUMMELA"},"geometry":{"type":"Point","coordinates":[24.29639,60.33389]}},{"type":"Feature","properties":{"icao":"EFOP","name":"ORIPÄÄ"},"geometry":{"type":"Point","coordinates":[22.74472,60.87639]}},{"type":"Feature","properties":{"icao":"EFOU","name":"OULU"},"geometry":{"type":"Point","coordinates":[25.35556,64.92917]}},{"type":"Feature","properties":{"icao":"EFPI","name":"PIIKAJÄRVI"},"geometry":{"type":"Point","coordinates":[22.195,61.24528]}},{"type":"Feature","properties":{"icao":"EFPK","name":"PIEKSÄMÄKI"},"geometry":{"type":"Point","coordinates":[27.00278,62.26472]}},{"type":"Feature","properties":{"icao":"EFPN","name":"PUNKAHARJU"},"geometry":{"type":"Point","coordinates":[29.39361,61.72889]}},{"type":"Feature","properties":{"icao":"EFPO","name":"PORI"},"geometry":{"type":"Point","coordinates":[21.79778,61.46139]}},{"type":"Feature","properties":{"icao":"EFPR","name":"REDSTONE AERO"},"geometry":{"type":"Point","coordinates":[26.59389,60.47917]}},{"type":"Feature","properties":{"icao":"EFPU","name":"PUDASJÄRVI"},"geometry":{"type":"Point","coordinates":[26.94694,65.40222]}},{"type":"Feature","properties":{"icao":"EFPY","name":"PYHÄSALMI"},"geometry":{"type":"Point","coordinates":[25.93194,63.72917]}},{"type":"Feature","properties":{"icao":"EFRA","name":"RAUTAVAARA"},"geometry":{"type":"Point","coordinates":[28.12417,63.42417]}},{"type":"Feature","properties":{"icao":"EFRH","name":"RAAHE-PATTIJOKI"},"geometry":{"type":"Point","coordinates":[24.69583,64.68806]}},{"type":"Feature","properties":{"icao":"EFRN","name":"RANTASALMI"},"geometry":{"type":"Point","coordinates":[28.35667,62.06556]}},{"type":"Feature","properties":{"icao":"EFRO","name":"ROVANIEMI"},"geometry":{"type":"Point","coordinates":[25.83083,66.56167]}},{"type":"Feature","properties":{"icao":"EFRU","name":"RANUA"},"geometry":{"type":"Point","coordinates":[26.36528,65.97306]}},{"type":"Feature","properties":{"icao":"EFRV","name":"KIURUVESI"},"geometry":{"type":"Point","coordinates":[26.61639,63.70556]}},{"type":"Feature","properties":{"icao":"EFRY","name":"RÄYSKÄLÄ"},"geometry":{"type":"Point","coordinates":[24.10778,60.74472]}},{"type":"Feature","properties":{"icao":"EFSA","name":"SAVONLINNA"},"geometry":{"type":"Point","coordinates":[28.945,61.94278]}},{"type":"Feature","properties":{"icao":"EFSE","name":"SELÄNPÄÄ"},"geometry":{"type":"Point","coordinates":[26.79556,61.06417]}},{"type":"Feature","properties":{"icao":"EFSI","name":"SEINÄJOKI"},"geometry":{"type":"Point","coordinates":[22.83194,62.69361]}},{"type":"Feature","properties":{"icao":"EFSO","name":"SODANKYLÄ"},"geometry":{"type":"Point","coordinates":[26.61806,67.39667]}},{"type":"Feature","properties":{"icao":"EFSU","name":"SUOMUSSALMI"},"geometry":{"type":"Point","coordinates":[28.71028,64.82194]}},{"type":"Feature","properties":{"icao":"EFTO","name":"TORBACKA"},"geometry":{"type":"Point","coordinates":[24.17222,60.07917]}},{"type":"Feature","properties":{"icao":"EFTP","name":"TAMPERE-PIRKKALA"},"geometry":{"type":"Point","coordinates":[23.58778,61.41528]}},{"type":"Feature","properties":{"icao":"EFTS","name":"TEISKO"},"geometry":{"type":"Point","coordinates":[24.02528,61.77306]}},{"type":"Feature","properties":{"icao":"EFTU","name":"TURKU"},"geometry":{"type":"Point","coordinates":[22.26167,60.51472]}},{"type":"Feature","properties":{"icao":"EFUT","name":"UTTI"},"geometry":{"type":"Point","coordinates":[26.93806,60.89639]}},{"type":"Feature","properties":{"icao":"EFVA","name":"VAASA"},"geometry":{"type":"Point","coordinates":[21.76417,63.04528]}},{"type":"Feature","properties":{"icao":"EFVI","name":"VIITASAARI"},"geometry":{"type":"Point","coordinates":[25.81611,63.1225]}},{"type":"Feature","properties":{"icao":"EFVL","name":"VAALA"},"geometry":{"type":"Point","coordinates":[26.76,64.50194]}},{"type":"Feature","properties":{"icao":"EFVP","name":"VAMPULA"},"geometry":{"type":"Point","coordinates":[22.59167,61.03972]}},{"type":"Feature","properties":{"icao":"EFVR","name":"VARKAUS"},"geometry":{"type":"Point","coordinates":[27.86861,62.17111]}},{"type":"Feature","properties":{"icao":"EFVT","name":"SULKAHARJU"},"geometry":{"type":"Point","coordinates":[24.03056,63.39778]}},{"type":"Feature","properties":{"icao":"EFWB","name":"WREDEBY"},"geometry":{"type":"Point","coordinates":[26.74583,60.66361]}},{"type":"Feature","properties":{"icao":"EFYL","name":"YLIVIESKA"},"geometry":{"type":"Point","coordinates":[24.72528,64.05472]}}]}