{"type":"FeatureCollection","metadata":{"source":"https://www.sia.aviation-civile.gouv.fr/media/dvd/eAIP_06_AUG_2026/FRANCE/AIRAC-2026-08-06/html/eAIP/","airacCycle":"2026-08-06","effective":"2026-08-06","generated":"2026-08-21","attribution":"Aerodromes © SIA / DGAC — French eAIP","note":"Not for navigation. Aerodrome reference points only, from AD 2.2; consult the current AIP and NOTAMs for flight planning."},"features":[{"type":"Feature","properties":{"icao":"LFAC","name":"CALAIS DUNKERQUE","elevationFt":12,"metar":true},"geometry":{"type":"Point","coordinates":[1.95139,50.96083]}},{"type":"Feature","properties":{"icao":"LFAQ","name":"ALBERT BRAY","elevationFt":363,"metar":true},"geometry":{"type":"Point","coordinates":[2.6925,49.97]}},{"type":"Feature","properties":{"icao":"LFAT","name":"LE TOUQUET ELIZABETH II","elevationFt":21,"metar":true},"geometry":{"type":"Point","coordinates":[1.6275,50.51472]}},{"type":"Feature","properties":{"icao":"LFAV","name":"VALENCIENNES DENAIN","elevationFt":172,"metar":true},"geometry":{"type":"Point","coordinates":[3.46556,50.32472]}},{"type":"Feature","properties":{"icao":"LFAY","name":"AMIENS-GLISY","elevationFt":208,"metar":true},"geometry":{"type":"Point","coordinates":[2.38694,49.87306]}},{"type":"Feature","properties":{"icao":"LFBA","name":"AGEN LA GARENNE","elevationFt":204,"metar":true},"geometry":{"type":"Point","coordinates":[0.59056,44.17472]}},{"type":"Feature","properties":{"icao":"LFBC","name":"CAZAUX","elevationFt":85,"metar":true},"geometry":{"type":"Point","coordinates":[-1.13139,44.535]}},{"type":"Feature","properties":{"icao":"LFBD","name":"BORDEAUX MERIGNAC","elevationFt":166,"metar":true},"geometry":{"type":"Point","coordinates":[-0.71528,44.82861]}},{"type":"Feature","properties":{"icao":"LFBE","name":"BERGERAC DORDOGNE PERIGORD","elevationFt":172,"metar":true},"geometry":{"type":"Point","coordinates":[0.52056,44.82444]}},{"type":"Feature","properties":{"icao":"LFBF","name":"TOULOUSE FRANCAZAL","elevationFt":535,"metar":true},"geometry":{"type":"Point","coordinates":[1.35722,43.54917]}},{"type":"Feature","properties":{"icao":"LFBG","name":"COGNAC CHATEAUBERNARD","elevationFt":103,"metar":true},"geometry":{"type":"Point","coordinates":[-0.3175,45.65833]}},{"type":"Feature","properties":{"icao":"LFBH","name":"LA ROCHELLE ILE DE RE","elevationFt":74,"metar":true},"geometry":{"type":"Point","coordinates":[-1.19528,46.17917]}},{"type":"Feature","properties":{"icao":"LFBI","name":"POITIERS BIARD","elevationFt":423,"metar":true},"geometry":{"type":"Point","coordinates":[0.30667,46.5875]}},{"type":"Feature","properties":{"icao":"LFBK","name":"MONTLUCON GUERET","elevationFt":1367,"metar":true},"geometry":{"type":"Point","coordinates":[2.36278,46.22611]}},{"type":"Feature","properties":{"icao":"LFBL","name":"LIMOGES BELLEGARDE","elevationFt":1300,"metar":true},"geometry":{"type":"Point","coordinates":[1.18028,45.86083]}},{"type":"Feature","properties":{"icao":"LFBM","name":"MONT DE MARSAN","elevationFt":203,"metar":true},"geometry":{"type":"Point","coordinates":[-0.51,43.91139]}},{"type":"Feature","properties":{"icao":"LFBN","name":"NIORT MARAIS POITEVIN","elevationFt":201,"metar":true},"geometry":{"type":"Point","coordinates":[-0.39444,46.31333]}},{"type":"Feature","properties":{"icao":"LFBO","name":"TOULOUSE BLAGNAC","elevationFt":499,"metar":true},"geometry":{"type":"Point","coordinates":[1.36778,43.635]}},{"type":"Feature","properties":{"icao":"LFBP","name":"PAU PYRENEES","elevationFt":616,"metar":true},"geometry":{"type":"Point","coordinates":[-0.41861,43.38]}},{"type":"Feature","properties":{"icao":"LFBR","name":"MURET LHERM","elevationFt":623,"metar":true},"geometry":{"type":"Point","coordinates":[1.26361,43.44917]}},{"type":"Feature","properties":{"icao":"LFBS","name":"BISCARROSSE PARENTIS","elevationFt":100,"metar":true},"geometry":{"type":"Point","coordinates":[-1.13222,44.36806]}},{"type":"Feature","properties":{"icao":"LFBT","name":"TARBES LOURDES PYRENEES","elevationFt":1260,"metar":true},"geometry":{"type":"Point","coordinates":[-0.00278,43.18556]}},{"type":"Feature","properties":{"icao":"LFBU","name":"ANGOULEME BRIE CHAMPNIERS","elevationFt":436,"metar":true},"geometry":{"type":"Point","coordinates":[0.21917,45.72944]}},{"type":"Feature","properties":{"icao":"LFBX","name":"PERIGUEUX BASSILLAC","elevationFt":328,"metar":true},"geometry":{"type":"Point","coordinates":[0.81528,45.1975]}},{"type":"Feature","properties":{"icao":"LFBY","name":"DAX SEYRESSE","elevationFt":102,"metar":true},"geometry":{"type":"Point","coordinates":[-1.06889,43.68917]}},{"type":"Feature","properties":{"icao":"LFBZ","name":"BIARRITZ PAYS BASQUE","elevationFt":245,"metar":true},"geometry":{"type":"Point","coordinates":[-1.53111,43.46833]}},{"type":"Feature","properties":{"icao":"LFCC","name":"CAHORS LALBENQUE","elevationFt":912,"metar":true},"geometry":{"type":"Point","coordinates":[1.47861,44.35056]}},{"type":"Feature","properties":{"icao":"LFCI","name":"ALBI LE SEQUESTRE","elevationFt":565,"metar":true},"geometry":{"type":"Point","coordinates":[2.11667,43.91333]}},{"type":"Feature","properties":{"icao":"LFCK","name":"CASTRES MAZAMET","elevationFt":785,"metar":true},"geometry":{"type":"Point","coordinates":[2.29056,43.555]}},{"type":"Feature","properties":{"icao":"LFCR","name":"RODEZ AVEYRON","elevationFt":1910,"metar":true},"geometry":{"type":"Point","coordinates":[2.48333,44.4075]}},{"type":"Feature","properties":{"icao":"LFCY","name":"ROYAN MEDIS","elevationFt":72,"metar":true},"geometry":{"type":"Point","coordinates":[-0.97556,45.63111]}},{"type":"Feature","properties":{"icao":"LFDH","name":"AUCH GERS","elevationFt":411,"metar":true},"geometry":{"type":"Point","coordinates":[0.6,43.68694]}},{"type":"Feature","properties":{"icao":"LFDJ","name":"PAMIERS LES PUJOLS","elevationFt":1114,"metar":true},"geometry":{"type":"Point","coordinates":[1.69583,43.09056]}},{"type":"Feature","properties":{"icao":"LFDN","name":"ROCHEFORT CHARENTE MARITIME","elevationFt":60,"metar":true},"geometry":{"type":"Point","coordinates":[-0.98222,45.88944]}},{"type":"Feature","properties":{"icao":"LFEC","name":"OUESSANT","elevationFt":142,"metar":true},"geometry":{"type":"Point","coordinates":[-5.06361,48.46333]}},{"type":"Feature","properties":{"icao":"LFEV","name":"GRAY SAINT ADRIEN","elevationFt":689,"metar":true},"geometry":{"type":"Point","coordinates":[5.62139,47.43222]}},{"type":"Feature","properties":{"icao":"LFEY","name":"ILE D'YEU","elevationFt":79,"metar":true},"geometry":{"type":"Point","coordinates":[-2.3925,46.7175]}},{"type":"Feature","properties":{"icao":"LFFK","name":"FONTENAY LE COMTE","elevationFt":80,"metar":true},"geometry":{"type":"Point","coordinates":[-0.79389,46.44083]}},{"type":"Feature","properties":{"icao":"LFGA","name":"COLMAR HOUSSEN","elevationFt":627,"metar":true},"geometry":{"type":"Point","coordinates":[7.35917,48.11028]}},{"type":"Feature","properties":{"icao":"LFGJ","name":"DOLE TAVAUX","elevationFt":645,"metar":true},"geometry":{"type":"Point","coordinates":[5.435,47.04278]}},{"type":"Feature","properties":{"icao":"LFHP","name":"LE PUY LOUDES","elevationFt":2731,"metar":true},"geometry":{"type":"Point","coordinates":[3.76333,45.07972]}},{"type":"Feature","properties":{"icao":"LFHV","name":"VILLEFRANCHE TARARE","elevationFt":1076,"metar":true},"geometry":{"type":"Point","coordinates":[4.635,45.92]}},{"type":"Feature","properties":{"icao":"LFHY","name":"MOULINS MONTBEUGNY","elevationFt":915,"metar":true},"geometry":{"type":"Point","coordinates":[3.42167,46.53444]}},{"type":"Feature","properties":{"icao":"LFJL","name":"METZ NANCY LORRAINE","elevationFt":870,"metar":true},"geometry":{"type":"Point","coordinates":[6.24667,48.97833]}},{"type":"Feature","properties":{"icao":"LFJR","name":"ANGERS MARCE","elevationFt":194,"metar":true},"geometry":{"type":"Point","coordinates":[-0.31222,47.56028]}},{"type":"Feature","properties":{"icao":"LFJY","name":"CHAMBLEY","elevationFt":866,"metar":true},"geometry":{"type":"Point","coordinates":[5.87611,49.02556]}},{"type":"Feature","properties":{"icao":"LFKB","name":"BASTIA PORETTA","elevationFt":26,"metar":true},"geometry":{"type":"Point","coordinates":[9.48472,42.55]}},{"type":"Feature","properties":{"icao":"LFKC","name":"CALVI SAINTE CATHERINE","elevationFt":210,"metar":true},"geometry":{"type":"Point","coordinates":[8.79306,42.52444]}},{"type":"Feature","properties":{"icao":"LFKF","name":"FIGARI SUD CORSE","elevationFt":85,"metar":true},"geometry":{"type":"Point","coordinates":[9.09667,41.50222]}},{"type":"Feature","properties":{"icao":"LFKJ","name":"AJACCIO NAPOLEON BONAPARTE","elevationFt":19,"metar":true},"geometry":{"type":"Point","coordinates":[8.8025,41.92389]}},{"type":"Feature","properties":{"icao":"LFKS","name":"SOLENZARA","elevationFt":29,"metar":true},"geometry":{"type":"Point","coordinates":[9.40528,41.92639]}},{"type":"Feature","properties":{"icao":"LFLA","name":"AUXERRE BRANCHES","elevationFt":523,"metar":true},"geometry":{"type":"Point","coordinates":[3.49667,47.84639]}},{"type":"Feature","properties":{"icao":"LFLB","name":"CHAMBERY AIX LES BAINS","elevationFt":779,"metar":true},"geometry":{"type":"Point","coordinates":[5.88,45.63917]}},{"type":"Feature","properties":{"icao":"LFLC","name":"CLERMONT FERRAND AUVERGNE","elevationFt":1092,"metar":true},"geometry":{"type":"Point","coordinates":[3.1625,45.78611]}},{"type":"Feature","properties":{"icao":"LFLD","name":"BOURGES","elevationFt":529,"metar":true},"geometry":{"type":"Point","coordinates":[2.37,47.06083]}},{"type":"Feature","properties":{"icao":"LFLG","name":"GRENOBLE LE VERSOUD","elevationFt":724,"metar":true},"geometry":{"type":"Point","coordinates":[5.84861,45.21806]}},{"type":"Feature","properties":{"icao":"LFLH","name":"CHALON CHAMPFORGEUIL","elevationFt":623,"metar":true},"geometry":{"type":"Point","coordinates":[4.81694,46.82833]}},{"type":"Feature","properties":{"icao":"LFLL","name":"LYON SAINT EXUPERY","elevationFt":821,"metar":true},"geometry":{"type":"Point","coordinates":[5.08111,45.72556]}},{"type":"Feature","properties":{"icao":"LFLN","name":"SAINT YAN","elevationFt":797,"metar":true},"geometry":{"type":"Point","coordinates":[4.02111,46.40667]}},{"type":"Feature","properties":{"icao":"LFLO","name":"ROANNE","elevationFt":1106,"metar":true},"geometry":{"type":"Point","coordinates":[3.99972,46.05278]}},{"type":"Feature","properties":{"icao":"LFLP","name":"ANNECY MEYTHET","elevationFt":1521,"metar":true},"geometry":{"type":"Point","coordinates":[6.10639,45.93083]}},{"type":"Feature","properties":{"icao":"LFLS","name":"GRENOBLE ALPES ISERE","elevationFt":1302,"metar":true},"geometry":{"type":"Point","coordinates":[5.33278,45.36306]}},{"type":"Feature","properties":{"icao":"LFLU","name":"VALENCE CHABEUIL","elevationFt":525,"metar":true},"geometry":{"type":"Point","coordinates":[4.96861,44.91556]}},{"type":"Feature","properties":{"icao":"LFLV","name":"VICHY CHARMEIL","elevationFt":817,"metar":true},"geometry":{"type":"Point","coordinates":[3.40417,46.17167]}},{"type":"Feature","properties":{"icao":"LFLW","name":"AURILLAC","elevationFt":2096,"metar":true},"geometry":{"type":"Point","coordinates":[2.41667,44.8975]}},{"type":"Feature","properties":{"icao":"LFLX","name":"CHATEAUROUX DEOLS","elevationFt":529,"metar":true},"geometry":{"type":"Point","coordinates":[1.72111,46.86028]}},{"type":"Feature","properties":{"icao":"LFLY","name":"LYON BRON","elevationFt":659,"metar":true},"geometry":{"type":"Point","coordinates":[4.93889,45.72944]}},{"type":"Feature","properties":{"icao":"LFMA","name":"AIX LES MILLES","elevationFt":368,"metar":true},"geometry":{"type":"Point","coordinates":[5.36722,43.50528]}},{"type":"Feature","properties":{"icao":"LFMC","name":"LE LUC LE CANNET","elevationFt":265,"metar":true},"geometry":{"type":"Point","coordinates":[6.38694,43.38472]}},{"type":"Feature","properties":{"icao":"LFMD","name":"CANNES MANDELIEU","elevationFt":14,"metar":true},"geometry":{"type":"Point","coordinates":[6.95417,43.54639]}},{"type":"Feature","properties":{"icao":"LFMH","name":"SAINT ETIENNE LOIRE","elevationFt":1325,"metar":true},"geometry":{"type":"Point","coordinates":[4.29722,45.53417]}},{"type":"Feature","properties":{"icao":"LFMI","name":"ISTRES LE TUBE","elevationFt":82,"metar":true},"geometry":{"type":"Point","coordinates":[4.92417,43.5225]}},{"type":"Feature","properties":{"icao":"LFMK","name":"CARCASSONNE SALVAZA","elevationFt":434,"metar":true},"geometry":{"type":"Point","coordinates":[2.30861,43.21583]}},{"type":"Feature","properties":{"icao":"LFML","name":"MARSEILLE PROVENCE","elevationFt":70,"metar":true},"geometry":{"type":"Point","coordinates":[5.215,43.43667]}},{"type":"Feature","properties":{"icao":"LFMN","name":"NICE COTE D'AZUR","elevationFt":12,"metar":true},"geometry":{"type":"Point","coordinates":[7.215,43.66528]}},{"type":"Feature","properties":{"icao":"LFMO","name":"ORANGE CARITAT","elevationFt":195,"metar":true},"geometry":{"type":"Point","coordinates":[4.86861,44.14]}},{"type":"Feature","properties":{"icao":"LFMP","name":"PERPIGNAN RIVESALTES","elevationFt":144,"metar":true},"geometry":{"type":"Point","coordinates":[2.86972,42.74083]}},{"type":"Feature","properties":{"icao":"LFMQ","name":"LE CASTELLET","elevationFt":1391,"metar":true},"geometry":{"type":"Point","coordinates":[5.78611,43.25222]}},{"type":"Feature","properties":{"icao":"LFMT","name":"MONTPELLIER MEDITERRANEE","elevationFt":17,"metar":true},"geometry":{"type":"Point","coordinates":[3.96139,43.58333]}},{"type":"Feature","properties":{"icao":"LFMU","name":"BEZIERS VIAS","elevationFt":56,"metar":true},"geometry":{"type":"Point","coordinates":[3.35333,43.32333]}},{"type":"Feature","properties":{"icao":"LFMV","name":"AVIGNON CAUMONT","elevationFt":124,"metar":true},"geometry":{"type":"Point","coordinates":[4.90194,43.90667]}},{"type":"Feature","properties":{"icao":"LFMY","name":"SALON DE PROVENCE","elevationFt":197,"metar":true},"geometry":{"type":"Point","coordinates":[5.10833,43.60306]}},{"type":"Feature","properties":{"icao":"LFNB","name":"MENDE BRENOUX","elevationFt":3362,"metar":true},"geometry":{"type":"Point","coordinates":[3.5275,44.50417]}},{"type":"Feature","properties":{"icao":"LFOA","name":"AVORD","elevationFt":578,"metar":true},"geometry":{"type":"Point","coordinates":[2.63889,47.05694]}},{"type":"Feature","properties":{"icao":"LFOB","name":"BEAUVAIS TILLE","elevationFt":359,"metar":true},"geometry":{"type":"Point","coordinates":[2.11278,49.45444]}},{"type":"Feature","properties":{"icao":"LFOE","name":"EVREUX FAUVILLE","elevationFt":465,"metar":true},"geometry":{"type":"Point","coordinates":[1.22,49.02861]}},{"type":"Feature","properties":{"icao":"LFOH","name":"LE HAVRE OCTEVILLE","elevationFt":313,"metar":true},"geometry":{"type":"Point","coordinates":[0.08806,49.53389]}},{"type":"Feature","properties":{"icao":"LFOJ","name":"ORLEANS BRICY","elevationFt":412,"metar":true},"geometry":{"type":"Point","coordinates":[1.76056,47.98778]}},{"type":"Feature","properties":{"icao":"LFOK","name":"CHALONS VATRY","elevationFt":586,"metar":true},"geometry":{"type":"Point","coordinates":[4.20611,48.77333]}},{"type":"Feature","properties":{"icao":"LFOP","name":"ROUEN VALLEE DE SEINE","elevationFt":512,"metar":true},"geometry":{"type":"Point","coordinates":[1.18389,49.39083]}},{"type":"Feature","properties":{"icao":"LFOQ","name":"BLOIS LE BREUIL","elevationFt":398,"metar":true},"geometry":{"type":"Point","coordinates":[1.20583,47.67972]}},{"type":"Feature","properties":{"icao":"LFOT","name":"TOURS VAL DE LOIRE","elevationFt":357,"metar":true},"geometry":{"type":"Point","coordinates":[0.72306,47.43194]}},{"type":"Feature","properties":{"icao":"LFOU","name":"CHOLET LE PONTREAU","elevationFt":443,"metar":true},"geometry":{"type":"Point","coordinates":[-0.87722,47.08194]}},{"type":"Feature","properties":{"icao":"LFOV","name":"LAVAL ENTRAMMES","elevationFt":330,"metar":true},"geometry":{"type":"Point","coordinates":[-0.74278,48.03222]}},{"type":"Feature","properties":{"icao":"LFOZ","name":"ORLEANS SAINT DENIS DE L'HOTEL","elevationFt":397,"metar":true},"geometry":{"type":"Point","coordinates":[2.16417,47.8975]}},{"type":"Feature","properties":{"icao":"LFPB","name":"PARIS LE BOURGET","elevationFt":220,"metar":true},"geometry":{"type":"Point","coordinates":[2.44139,48.96944]}},{"type":"Feature","properties":{"icao":"LFPG","name":"PARIS CHARLES DE GAULLE","elevationFt":392,"metar":true},"geometry":{"type":"Point","coordinates":[2.54778,49.00972]}},{"type":"Feature","properties":{"icao":"LFPM","name":"MELUN VILLAROCHE","elevationFt":304,"metar":true},"geometry":{"type":"Point","coordinates":[2.67083,48.60528]}},{"type":"Feature","properties":{"icao":"LFPN","name":"PARIS SACLAY VERSAILLES","elevationFt":538,"metar":true},"geometry":{"type":"Point","coordinates":[2.11111,48.74972]}},{"type":"Feature","properties":{"icao":"LFPO","name":"PARIS ORLY","elevationFt":291,"metar":true},"geometry":{"type":"Point","coordinates":[2.37944,48.72333]}},{"type":"Feature","properties":{"icao":"LFPT","name":"PONTOISE CORMEILLES EN VEXIN","elevationFt":325,"metar":true},"geometry":{"type":"Point","coordinates":[2.04083,49.09667]}},{"type":"Feature","properties":{"icao":"LFPV","name":"VILLACOUBLAY VELIZY","elevationFt":585,"metar":true},"geometry":{"type":"Point","coordinates":[2.19139,48.77417]}},{"type":"Feature","properties":{"icao":"LFQA","name":"REIMS PRUNAY","elevationFt":313,"metar":true},"geometry":{"type":"Point","coordinates":[4.15667,49.20861]}},{"type":"Feature","properties":{"icao":"LFQB","name":"TROYES BARBEREY","elevationFt":389,"metar":true},"geometry":{"type":"Point","coordinates":[4.01667,48.32167]}},{"type":"Feature","properties":{"icao":"LFQE","name":"ETAIN ROUVRES","elevationFt":760,"metar":true},"geometry":{"type":"Point","coordinates":[5.67611,49.22917]}},{"type":"Feature","properties":{"icao":"LFQG","name":"NEVERS FOURCHAMBAULT","elevationFt":602,"metar":true},"geometry":{"type":"Point","coordinates":[3.11083,47.00361]}},{"type":"Feature","properties":{"icao":"LFQM","name":"BESANCON LA VEZE","elevationFt":1270,"metar":true},"geometry":{"type":"Point","coordinates":[6.08056,47.20528]}},{"type":"Feature","properties":{"icao":"LFQP","name":"PHALSBOURG BOURSCHEID","elevationFt":1018,"metar":true},"geometry":{"type":"Point","coordinates":[7.205,48.76806]}},{"type":"Feature","properties":{"icao":"LFQQ","name":"LILLE LESQUIN","elevationFt":157,"metar":true},"geometry":{"type":"Point","coordinates":[3.08694,50.56333]}},{"type":"Feature","properties":{"icao":"LFQT","name":"MERVILLE CALONNE","elevationFt":61,"metar":true},"geometry":{"type":"Point","coordinates":[2.64,50.61667]}},{"type":"Feature","properties":{"icao":"LFRB","name":"BREST BRETAGNE","elevationFt":325,"metar":true},"geometry":{"type":"Point","coordinates":[-4.42167,48.44722]}},{"type":"Feature","properties":{"icao":"LFRC","name":"CHERBOURG MANCHE","elevationFt":459,"metar":true},"geometry":{"type":"Point","coordinates":[-1.47528,49.65083]}},{"type":"Feature","properties":{"icao":"LFRD","name":"DINARD PLEURTUIT SAINT MALO","elevationFt":219,"metar":true},"geometry":{"type":"Point","coordinates":[-2.08,48.58778]}},{"type":"Feature","properties":{"icao":"LFRG","name":"DEAUVILLE NORMANDIE","elevationFt":479,"metar":true},"geometry":{"type":"Point","coordinates":[0.16,49.36333]}},{"type":"Feature","properties":{"icao":"LFRH","name":"LORIENT LANN BIHOUE","elevationFt":159,"metar":true},"geometry":{"type":"Point","coordinates":[-3.44,47.76056]}},{"type":"Feature","properties":{"icao":"LFRI","name":"LA ROCHE SUR YON LES AJONCS","elevationFt":299,"metar":true},"geometry":{"type":"Point","coordinates":[-1.38167,46.7025]}},{"type":"Feature","properties":{"icao":"LFRJ","name":"LANDIVISIAU","elevationFt":348,"metar":true},"geometry":{"type":"Point","coordinates":[-4.15167,48.53028]}},{"type":"Feature","properties":{"icao":"LFRK","name":"CAEN CARPIQUET","elevationFt":243,"metar":true},"geometry":{"type":"Point","coordinates":[-0.45,49.17333]}},{"type":"Feature","properties":{"icao":"LFRL","name":"LANVEOC POULMIC","elevationFt":287,"metar":true},"geometry":{"type":"Point","coordinates":[-4.44361,48.2825]}},{"type":"Feature","properties":{"icao":"LFRM","name":"LE MANS ARNAGE","elevationFt":194,"metar":true},"geometry":{"type":"Point","coordinates":[0.20167,47.94861]}},{"type":"Feature","properties":{"icao":"LFRN","name":"RENNES SAINT JACQUES","elevationFt":124,"metar":true},"geometry":{"type":"Point","coordinates":[-1.73222,48.07194]}},{"type":"Feature","properties":{"icao":"LFRO","name":"LANNION","elevationFt":290,"metar":true},"geometry":{"type":"Point","coordinates":[-3.47194,48.75444]}},{"type":"Feature","properties":{"icao":"LFRQ","name":"QUIMPER PLUGUFFAN","elevationFt":297,"metar":true},"geometry":{"type":"Point","coordinates":[-4.16778,47.975]}},{"type":"Feature","properties":{"icao":"LFRS","name":"NANTES ATLANTIQUE","elevationFt":90,"metar":true},"geometry":{"type":"Point","coordinates":[-1.60778,47.15694]}},{"type":"Feature","properties":{"icao":"LFRT","name":"SAINT BRIEUC ARMOR","elevationFt":452,"metar":true},"geometry":{"type":"Point","coordinates":[-2.85667,48.5375]}},{"type":"Feature","properties":{"icao":"LFRU","name":"MORLAIX PLOUJEAN","elevationFt":278,"metar":true},"geometry":{"type":"Point","coordinates":[-3.81667,48.60083]}},{"type":"Feature","properties":{"icao":"LFRV","name":"VANNES GOLFE DU MORBIHAN","elevationFt":440,"metar":true},"geometry":{"type":"Point","coordinates":[-2.72333,47.71917]}},{"type":"Feature","properties":{"icao":"LFRZ","name":"SAINT NAZAIRE MONTOIR","elevationFt":13,"metar":true},"geometry":{"type":"Point","coordinates":[-2.15667,47.31056]}},{"type":"Feature","properties":{"icao":"LFSB","name":"BALE-MULHOUSE","elevationFt":885,"metar":true},"geometry":{"type":"Point","coordinates":[7.52917,47.59]}},{"type":"Feature","properties":{"icao":"LFSD","name":"DIJON-LONGVIC","elevationFt":728,"metar":true},"geometry":{"type":"Point","coordinates":[5.095,47.26583]}},{"type":"Feature","properties":{"icao":"LFSG","name":"EPINAL MIRECOURT","elevationFt":1084,"metar":true},"geometry":{"type":"Point","coordinates":[6.06667,48.325]}},{"type":"Feature","properties":{"icao":"LFSI","name":"SAINT DIZIER ROBINSON","elevationFt":459,"metar":true},"geometry":{"type":"Point","coordinates":[4.90806,48.63361]}},{"type":"Feature","properties":{"icao":"LFSL","name":"BRIVE SOUILLAC","elevationFt":1016,"metar":true},"geometry":{"type":"Point","coordinates":[1.48556,45.03972]}},{"type":"Feature","properties":{"icao":"LFSM","name":"MONTBELIARD COURCELLES","elevationFt":1041,"metar":true},"geometry":{"type":"Point","coordinates":[6.79139,47.48667]}},{"type":"Feature","properties":{"icao":"LFSN","name":"NANCY ESSEY","elevationFt":757,"metar":true},"geometry":{"type":"Point","coordinates":[6.22611,48.69222]}},{"type":"Feature","properties":{"icao":"LFSO","name":"NANCY OCHEY","elevationFt":1106,"metar":true},"geometry":{"type":"Point","coordinates":[5.95444,48.58306]}},{"type":"Feature","properties":{"icao":"LFST","name":"STRASBOURG ENTZHEIM","elevationFt":505,"metar":true},"geometry":{"type":"Point","coordinates":[7.63444,48.54194]}},{"type":"Feature","properties":{"icao":"LFSX","name":"LUXEUIL SAINT SAUVEUR","elevationFt":885,"metar":true},"geometry":{"type":"Point","coordinates":[6.365,47.78722]}},{"type":"Feature","properties":{"icao":"LFTH","name":"HYERES LE PALYVESTRE","elevationFt":13,"metar":true},"geometry":{"type":"Point","coordinates":[6.14611,43.09722]}},{"type":"Feature","properties":{"icao":"LFTW","name":"NIMES GARONS","elevationFt":309,"metar":true},"geometry":{"type":"Point","coordinates":[4.41639,43.7575]}},{"type":"Feature","properties":{"icao":"LFTZ","name":"LA MOLE","elevationFt":63,"metar":true},"geometry":{"type":"Point","coordinates":[6.48194,43.20528]}}]}