{"type":"FeatureCollection","features":[{"type":"Feature","geometry":{"type":"Point","coordinates":[25.10224,60.45385]},"properties":{"n":"Ainola","s":"AIN","c":"FI"}},{"type":"Feature","geometry":{"type":"Point","coordinates":[23.60044,62.61777]},"properties":{"n":"Alavus","s":"ALV","c":"FI"}},{"type":"Feature","geometry":{"type":"Point","coordinates":[24.95619,60.30435]},"properties":{"n":"Aviapolis","s":"AVP","c":"FI"}},{"type":"Feature","geometry":{"type":"Point","coordinates":[23.48861,59.9902]},"properties":{"n":"Dragsvik","s":"DRA","c":"FI"}},{"type":"Feature","geometry":{"type":"Point","coordinates":[24.19148,62.54068]},"properties":{"n":"Eläinpuisto-Zoo","s":"EPZ","c":"FI"}},{"type":"Feature","geometry":{"type":"Point","coordinates":[30.14169,62.80638]},"properties":{"n":"Eno","s":"ENO","c":"FI"}},{"type":"Feature","geometry":{"type":"Point","coordinates":[24.65599,60.20507]},"properties":{"n":"Espoo","s":"EPO","c":"FI"}},{"type":"Feature","geometry":{"type":"Point","coordinates":[25.33434,63.75451]},"properties":{"n":"Haapajärvi","s":"HPJ","c":"FI"}},{"type":"Feature","geometry":{"type":"Point","coordinates":[24.45507,62.24648]},"properties":{"n":"Haapamäki","s":"HPK","c":"FI"}},{"type":"Feature","geometry":{"type":"Point","coordinates":[24.13022,65.82823]},"properties":{"n":"Haaparanta pohjoinen","s":"HPA","c":"SE"}},{"type":"Feature","geometry":{"type":"Point","coordinates":[25.13382,60.49626]},"properties":{"n":"Haarajoki","s":"HAA","c":"FI"}},{"type":"Feature","geometry":{"type":"Point","coordinates":[25.55466,60.40821]},"properties":{"n":"Haksi","s":"HSI","c":"FI"}},{"type":"Feature","geometry":{"type":"Point","coordinates":[26.47812,62.30281]},"properties":{"n":"Hankasalmi","s":"HKS","c":"FI"}},{"type":"Feature","geometry":{"type":"Point","coordinates":[22.96829,59.82686]},"properties":{"n":"Hanko","s":"HNK","c":"FI"}},{"type":"Feature","geometry":{"type":"Point","coordinates":[22.98836,59.83014]},"properties":{"n":"Hanko-Pohjoinen","s":"HKP","c":"FI"}},{"type":"Feature","geometry":{"type":"Point","coordinates":[22.13326,61.30969]},"properties":{"n":"Harjavalta","s":"HVA","c":"FI"}},{"type":"Feature","geometry":{"type":"Point","coordinates":[28.64342,62.38254]},"properties":{"n":"Heinävesi","s":"HNV","c":"FI"}},{"type":"Feature","geometry":{"type":"Point","coordinates":[24.94144,60.17136]},"properties":{"n":"Helsinki","s":"HKI","c":"FI"}},{"type":"Feature","geometry":{"type":"Point","coordinates":[25.49439,60.79913]},"properties":{"n":"Henna","s":"HNN","c":"FI"}},{"type":"Feature","geometry":{"type":"Point","coordinates":[25.47562,60.89694]},"properties":{"n":"Herrala","s":"HR","c":"FI"}},{"type":"Feature","geometry":{"type":"Point","coordinates":[25.0493,60.30307]},"properties":{"n":"Hiekkaharju","s":"HKH","c":"FI"}},{"type":"Feature","geometry":{"type":"Point","coordinates":[24.9192,60.75259]},"properties":{"n":"Hikiä","s":"HK","c":"FI"}},{"type":"Feature","geometry":{"type":"Point","coordinates":[26.78916,61.19309]},"properties":{"n":"Hillosensalmi","s":"HLS","c":"FI"}},{"type":"Feature","geometry":{"type":"Point","coordinates":[25.47795,60.39976]},"properties":{"n":"Hinthaara","s":"HH","c":"FI"}},{"type":"Feature","geometry":{"type":"Point","coordinates":[23.36254,60.91951]},"properties":{"n":"Humppila","s":"HP","c":"FI"}},{"type":"Feature","geometry":{"type":"Point","coordinates":[24.89352,60.21835]},"properties":{"n":"Huopalahti","s":"HPL","c":"FI"}},{"type":"Feature","geometry":{"type":"Point","coordinates":[24.85748,60.63126]},"properties":{"n":"Hyvinkää","s":"HY","c":"FI"}},{"type":"Feature","geometry":{"type":"Point","coordinates":[24.47885,61.00237]},"properties":{"n":"Hämeenlinna","s":"HL","c":"FI"}},{"type":"Feature","geometry":{"type":"Point","coordinates":[22.87663,63.23432]},"properties":{"n":"Härmä","s":"HM","c":"FI"}},{"type":"Feature","geometry":{"type":"Point","coordinates":[29.44413,63.45487]},"properties":{"n":"Höljäkkä","s":"HÖL","c":"FI"}},{"type":"Feature","geometry":{"type":"Point","coordinates":[27.20111,63.5601]},"properties":{"n":"Iisalmi","s":"ILM","c":"FI"}},{"type":"Feature","geometry":{"type":"Point","coordinates":[24.14079,61.09062]},"properties":{"n":"Iittala","s":"ITA","c":"FI"}},{"type":"Feature","geometry":{"type":"Point","coordinates":[24.92083,60.20781]},"properties":{"n":"Ilmala","s":"ILA","c":"FI"}},{"type":"Feature","geometry":{"type":"Point","coordinates":[28.77602,61.19591]},"properties":{"n":"Imatra","s":"IMR","c":"FI"}},{"type":"Feature","geometry":{"type":"Point","coordinates":[26.83918,60.69667]},"properties":{"n":"Inkeroinen","s":"IKR","c":"FI"}},{"type":"Feature","geometry":{"type":"Point","coordinates":[23.93585,60.06151]},"properties":{"n":"Inkoo","s":"IKO","c":"FI"}},{"type":"Feature","geometry":{"type":"Point","coordinates":[22.3948,62.95107]},"properties":{"n":"Isokyrö","s":"IKY","c":"FI"}},{"type":"Feature","geometry":{"type":"Point","coordinates":[29.77703,62.59954]},"properties":{"n":"Joensuu","s":"JNS","c":"FI"}},{"type":"Feature","geometry":{"type":"Point","coordinates":[24.97068,60.5528]},"properties":{"n":"Jokela","s":"JK","c":"FI"}},{"type":"Feature","geometry":{"type":"Point","coordinates":[24.51278,60.13788]},"properties":{"n":"Jorvas","s":"JRS","c":"FI"}},{"type":"Feature","geometry":{"type":"Point","coordinates":[28.48825,61.12029]},"properties":{"n":"Joutseno","s":"JTS","c":"FI"}},{"type":"Feature","geometry":{"type":"Point","coordinates":[24.36505,61.79679]},"properties":{"n":"Juupajoki","s":"JJ","c":"FI"}},{"type":"Feature","geometry":{"type":"Point","coordinates":[25.75498,62.24146]},"properties":{"n":"Jyväskylä","s":"JY","c":"FI"}},{"type":"Feature","geometry":{"type":"Point","coordinates":[25.17329,61.86563]},"properties":{"n":"Jämsä","s":"JÄS","c":"FI"}},{"type":"Feature","geometry":{"type":"Point","coordinates":[25.27466,60.86733]},"properties":{"n":"Järvelä","s":"JR","c":"FI"}},{"type":"Feature","geometry":{"type":"Point","coordinates":[25.0908,60.47368]},"properties":{"n":"Järvenpää","s":"JP","c":"FI"}},{"type":"Feature","geometry":{"type":"Point","coordinates":[27.73837,64.21972]},"properties":{"n":"Kajaani","s":"KAJ","c":"FI"}},{"type":"Feature","geometry":{"type":"Point","coordinates":[24.877,60.23956]},"properties":{"n":"Kannelmäki","s":"KAN","c":"FI"}},{"type":"Feature","geometry":{"type":"Point","coordinates":[23.91536,63.89843]},"properties":{"n":"Kannus","s":"KNS","c":"FI"}},{"type":"Feature","geometry":{"type":"Point","coordinates":[23.66126,60.06872]},"properties":{"n":"Karjaa","s":"KR","c":"FI"}},{"type":"Feature","geometry":{"type":"Point","coordinates":[23.04913,61.44331]},"properties":{"n":"Karkku","s":"KRU","c":"FI"}},{"type":"Feature","geometry":{"type":"Point","coordinates":[23.0353,63.09964]},"properties":{"n":"Kauhava","s":"KHA","c":"FI"}},{"type":"Feature","geometry":{"type":"Point","coordinates":[24.60035,60.18946]},"properties":{"n":"Kauklahti","s":"KLH","c":"FI"}},{"type":"Feature","geometry":{"type":"Point","coordinates":[24.73088,60.21194]},"properties":{"n":"Kauniainen","s":"KNI","c":"FI"}},{"type":"Feature","geometry":{"type":"Point","coordinates":[26.32937,60.88535]},"properties":{"n":"Kausala","s":"KA","c":"FI"}},{"type":"Feature","geometry":{"type":"Point","coordinates":[24.57434,65.73675]},"properties":{"n":"Kemi","s":"KEM","c":"FI"}},{"type":"Feature","geometry":{"type":"Point","coordinates":[27.40371,66.72427]},"properties":{"n":"Kemijärvi","s":"KJÄ","c":"FI"}},{"type":"Feature","geometry":{"type":"Point","coordinates":[25.51455,64.9129]},"properties":{"n":"Kempele","s":"KML","c":"FI"}},{"type":"Feature","geometry":{"type":"Point","coordinates":[24.75564,60.21657]},"properties":{"n":"Kera","s":"KEA","c":"FI"}},{"type":"Feature","geometry":{"type":"Point","coordinates":[25.10603,60.4043]},"properties":{"n":"Kerava","s":"KE","c":"FI"}},{"type":"Feature","geometry":{"type":"Point","coordinates":[29.11405,61.86141]},"properties":{"n":"Kerimäki","s":"KIÄ","c":"FI"}},{"type":"Feature","geometry":{"type":"Point","coordinates":[29.80287,61.88747]},"properties":{"n":"Kesälahti","s":"KTI","c":"FI"}},{"type":"Feature","geometry":{"type":"Point","coordinates":[24.70733,62.25531]},"properties":{"n":"Keuruu","s":"KEU","c":"FI"}},{"type":"Feature","geometry":{"type":"Point","coordinates":[25.6132,60.40672]},"properties":{"n":"Kiiala","s":"KIA","c":"FI"}},{"type":"Feature","geometry":{"type":"Point","coordinates":[24.78239,60.21794]},"properties":{"n":"Kilo","s":"KIL","c":"FI"}},{"type":"Feature","geometry":{"type":"Point","coordinates":[24.43881,60.11965]},"properties":{"n":"Kirkkonummi","s":"KKN","c":"FI"}},{"type":"Feature","geometry":{"type":"Point","coordinates":[30.04901,62.14277]},"properties":{"n":"Kitee","s":"KIT","c":"FI"}},{"type":"Feature","geometry":{"type":"Point","coordinates":[26.61133,63.64091]},"properties":{"n":"Kiuruvesi","s":"KRV","c":"FI"}},{"type":"Feature","geometry":{"type":"Point","coordinates":[24.84694,60.31461]},"properties":{"n":"Kivistö","s":"KTÖ","c":"FI"}},{"type":"Feature","geometry":{"type":"Point","coordinates":[29.28701,63.51476]},"properties":{"n":"Kohtavaara","s":"KOH","c":"FI"}},{"type":"Feature","geometry":{"type":"Point","coordinates":[24.70127,60.20714]},"properties":{"n":"Koivuhovi","s":"KVH","c":"FI"}},{"type":"Feature","geometry":{"type":"Point","coordinates":[25.0598,60.32328]},"properties":{"n":"Koivukylä","s":"KVY","c":"FI"}},{"type":"Feature","geometry":{"type":"Point","coordinates":[22.30335,61.2542]},"properties":{"n":"Kokemäki","s":"KKI","c":"FI"}},{"type":"Feature","geometry":{"type":"Point","coordinates":[23.1311,63.83443]},"properties":{"n":"Kokkola","s":"KOK","c":"FI"}},{"type":"Feature","geometry":{"type":"Point","coordinates":[23.83625,67.34871]},"properties":{"n":"Kolari","s":"KLI","c":"FI"}},{"type":"Feature","geometry":{"type":"Point","coordinates":[24.50744,62.12805]},"properties":{"n":"Kolho","s":"KLO","c":"FI"}},{"type":"Feature","geometry":{"type":"Point","coordinates":[28.11469,64.33822]},"properties":{"n":"Kontiomäki","s":"KON","c":"FI"}},{"type":"Feature","geometry":{"type":"Point","coordinates":[26.60131,60.84707]},"properties":{"n":"Koria","s":"KRA","c":"FI"}},{"type":"Feature","geometry":{"type":"Point","coordinates":[25.07851,60.35129]},"properties":{"n":"Korso","s":"KRS","c":"FI"}},{"type":"Feature","geometry":{"type":"Point","coordinates":[26.92861,60.46439]},"properties":{"n":"Kotka","s":"KTA","c":"FI"}},{"type":"Feature","geometry":{"type":"Point","coordinates":[26.93495,60.46649]},"properties":{"n":"Kotkan satama","s":"KTS","c":"FI"}},{"type":"Feature","geometry":{"type":"Point","coordinates":[26.70459,60.86561]},"properties":{"n":"Kouvola","s":"KV","c":"FI"}},{"type":"Feature","geometry":{"type":"Point","coordinates":[27.67958,62.89722]},"properties":{"n":"Kuopio","s":"KUO","c":"FI"}},{"type":"Feature","geometry":{"type":"Point","coordinates":[22.29711,60.45027]},"properties":{"n":"Kupittaa","s":"KUT","c":"FI"}},{"type":"Feature","geometry":{"type":"Point","coordinates":[29.75243,63.3614]},"properties":{"n":"Kylänlahti","s":"KYN","c":"FI"}},{"type":"Feature","geometry":{"type":"Point","coordinates":[26.90714,60.53923]},"properties":{"n":"Kymi","s":"KY","c":"FI"}},{"type":"Feature","geometry":{"type":"Point","coordinates":[26.89581,60.50826]},"properties":{"n":"Kyminlinna","s":"KLN","c":"FI"}},{"type":"Feature","geometry":{"type":"Point","coordinates":[24.94603,60.22017]},"properties":{"n":"Käpylä","s":"KÄP","c":"FI"}},{"type":"Feature","geometry":{"type":"Point","coordinates":[25.6574,60.97647]},"properties":{"n":"Lahti","s":"LH","c":"FI"}},{"type":"Feature","geometry":{"type":"Point","coordinates":[22.00344,62.99014]},"properties":{"n":"Laihia","s":"LAI","c":"FI"}},{"type":"Feature","geometry":{"type":"Point","coordinates":[27.39355,63.36067]},"properties":{"n":"Lapinlahti","s":"LNA","c":"FI"}},{"type":"Feature","geometry":{"type":"Point","coordinates":[28.1953,61.04797]},"properties":{"n":"Lappeenranta","s":"LR","c":"FI"}},{"type":"Feature","geometry":{"type":"Point","coordinates":[25.17423,60.84895]},"properties":{"n":"Lappila","s":"LAA","c":"FI"}},{"type":"Feature","geometry":{"type":"Point","coordinates":[23.23692,59.90408]},"properties":{"n":"Lappohja","s":"LPO","c":"FI"}},{"type":"Feature","geometry":{"type":"Point","coordinates":[23.01511,62.97134]},"properties":{"n":"Lapua","s":"LPA","c":"FI"}},{"type":"Feature","geometry":{"type":"Point","coordinates":[25.03942,60.32264]},"properties":{"n":"Leinelä","s":"LNÄ","c":"FI"}},{"type":"Feature","geometry":{"type":"Point","coordinates":[23.75509,61.31423]},"properties":{"n":"Lempäälä","s":"LPÄ","c":"FI"}},{"type":"Feature","geometry":{"type":"Point","coordinates":[24.96834,60.31573]},"properties":{"n":"Lentoasema","s":"LEN","c":"FI"}},{"type":"Feature","geometry":{"type":"Point","coordinates":[24.81354,60.21948]},"properties":{"n":"Leppävaara","s":"LPV","c":"FI"}},{"type":"Feature","geometry":{"type":"Point","coordinates":[30.01639,63.3182]},"properties":{"n":"Lieksa","s":"LIS","c":"FI"}},{"type":"Feature","geometry":{"type":"Point","coordinates":[26.19589,62.25987]},"properties":{"n":"Lievestuore","s":"LVT","c":"FI"}},{"type":"Feature","geometry":{"type":"Point","coordinates":[23.06041,60.84738]},"properties":{"n":"Loimaa","s":"LM","c":"FI"}},{"type":"Feature","geometry":{"type":"Point","coordinates":[24.8533,60.2708]},"properties":{"n":"Louhela","s":"LOH","c":"FI"}},{"type":"Feature","geometry":{"type":"Point","coordinates":[29.32227,61.80055]},"properties":{"n":"Lusto","s":"LUS","c":"FI"}},{"type":"Feature","geometry":{"type":"Point","coordinates":[25.01147,60.25166]},"properties":{"n":"Malmi","s":"ML","c":"FI"}},{"type":"Feature","geometry":{"type":"Point","coordinates":[24.86128,60.24932]},"properties":{"n":"Malminkartano","s":"MLO","c":"FI"}},{"type":"Feature","geometry":{"type":"Point","coordinates":[24.8526,60.27808]},"properties":{"n":"Martinlaakso","s":"MRL","c":"FI"}},{"type":"Feature","geometry":{"type":"Point","coordinates":[24.53911,60.15866]},"properties":{"n":"Masala","s":"MAS","c":"FI"}},{"type":"Feature","geometry":{"type":"Point","coordinates":[27.27797,61.68782]},"properties":{"n":"Mikkeli","s":"MI","c":"FI"}},{"type":"Feature","geometry":{"type":"Point","coordinates":[26.68724,66.61792]},"properties":{"n":"Misi","s":"MIS","c":"FI"}},{"type":"Feature","geometry":{"type":"Point","coordinates":[25.07514,60.82118]},"properties":{"n":"Mommila","s":"MLA","c":"FI"}},{"type":"Feature","geometry":{"type":"Point","coordinates":[25.992,64.8054]},"properties":{"n":"Muhos","s":"MH","c":"FI"}},{"type":"Feature","geometry":{"type":"Point","coordinates":[25.37511,66.37087]},"properties":{"n":"Muurola","s":"MUL","c":"FI"}},{"type":"Feature","geometry":{"type":"Point","coordinates":[26.78669,60.77101]},"properties":{"n":"Myllykoski","s":"MKI","c":"FI"}},{"type":"Feature","geometry":{"type":"Point","coordinates":[24.28096,62.52475]},"properties":{"n":"Myllymäki","s":"MY","c":"FI"}},{"type":"Feature","geometry":{"type":"Point","coordinates":[24.85475,60.26133]},"properties":{"n":"Myyrmäki","s":"MYR","c":"FI"}},{"type":"Feature","geometry":{"type":"Point","coordinates":[24.84298,60.22131]},"properties":{"n":"Mäkkylä","s":"MÄK","c":"FI"}},{"type":"Feature","geometry":{"type":"Point","coordinates":[25.30748,60.64726]},"properties":{"n":"Mäntsälä","s":"MLÄ","c":"FI"}},{"type":"Feature","geometry":{"type":"Point","coordinates":[26.88175,61.4211]},"properties":{"n":"Mäntyharju","s":"MR","c":"FI"}},{"type":"Feature","geometry":{"type":"Point","coordinates":[25.93547,60.93557]},"properties":{"n":"Nastola","s":"NSL","c":"FI"}},{"type":"Feature","geometry":{"type":"Point","coordinates":[25.26654,60.38237]},"properties":{"n":"Nikkilä","s":"NLÄ","c":"FI"}},{"type":"Feature","geometry":{"type":"Point","coordinates":[24.96077,63.93639]},"properties":{"n":"Nivala","s":"NVL","c":"FI"}},{"type":"Feature","geometry":{"type":"Point","coordinates":[23.49917,61.48106]},"properties":{"n":"Nokia","s":"NOA","c":"FI"}},{"type":"Feature","geometry":{"type":"Point","coordinates":[29.13723,63.54108]},"properties":{"n":"Nurmes","s":"NRM","c":"FI"}},{"type":"Feature","geometry":{"type":"Point","coordinates":[25.02132,60.78981]},"properties":{"n":"Oitti","s":"OI","c":"FI"}},{"type":"Feature","geometry":{"type":"Point","coordinates":[24.36805,61.6501]},"properties":{"n":"Orivesi","s":"OV","c":"FI"}},{"type":"Feature","geometry":{"type":"Point","coordinates":[24.36984,61.67391]},"properties":{"n":"Orivesi keskusta","s":"OVK","c":"FI"}},{"type":"Feature","geometry":{"type":"Point","coordinates":[24.82098,64.26951]},"properties":{"n":"Oulainen","s":"OU","c":"FI"}},{"type":"Feature","geometry":{"type":"Point","coordinates":[25.48612,65.01241]},"properties":{"n":"Oulu","s":"OL","c":"FI"}},{"type":"Feature","geometry":{"type":"Point","coordinates":[24.96768,60.229]},"properties":{"n":"Oulunkylä","s":"OLK","c":"FI"}},{"type":"Feature","geometry":{"type":"Point","coordinates":[26.91937,60.47969]},"properties":{"n":"Paimenportti","s":"PTI","c":"FI"}},{"type":"Feature","geometry":{"type":"Point","coordinates":[27.82218,64.40061]},"properties":{"n":"Paltamo","s":"PTO","c":"FI"}},{"type":"Feature","geometry":{"type":"Point","coordinates":[29.50288,61.55855]},"properties":{"n":"Parikkala","s":"PAR","c":"FI"}},{"type":"Feature","geometry":{"type":"Point","coordinates":[23.07844,62.05197]},"properties":{"n":"Parkano","s":"PKO","c":"FI"}},{"type":"Feature","geometry":{"type":"Point","coordinates":[24.3665,61.04992]},"properties":{"n":"Parola","s":"PRL","c":"FI"}},{"type":"Feature","geometry":{"type":"Point","coordinates":[24.93352,60.19869]},"properties":{"n":"Pasila","s":"PSL","c":"FI"}},{"type":"Feature","geometry":{"type":"Point","coordinates":[24.93317,60.2083]},"properties":{"n":"Pasila autojuna-asema","s":"PAU","c":"FI"}},{"type":"Feature","geometry":{"type":"Point","coordinates":[23.99337,66.78466]},"properties":{"n":"Pello","s":"PEL","c":"FI"}},{"type":"Feature","geometry":{"type":"Point","coordinates":[25.18934,62.25697]},"properties":{"n":"Petäjävesi","s":"PVI","c":"FI"}},{"type":"Feature","geometry":{"type":"Point","coordinates":[27.16753,62.30125]},"properties":{"n":"Pieksämäki","s":"PM","c":"FI"}},{"type":"Feature","geometry":{"type":"Point","coordinates":[24.39561,62.34623]},"properties":{"n":"Pihlajavesi","s":"PH","c":"FI"}},{"type":"Feature","geometry":{"type":"Point","coordinates":[24.85965,60.22341]},"properties":{"n":"Pitäjänmäki","s":"PJM","c":"FI"}},{"type":"Feature","geometry":{"type":"Point","coordinates":[24.88332,60.23016]},"properties":{"n":"Pohjois-Haaga","s":"POH","c":"FI"}},{"type":"Feature","geometry":{"type":"Point","coordinates":[21.78661,61.47721]},"properties":{"n":"Pori","s":"PRI","c":"FI"}},{"type":"Feature","geometry":{"type":"Point","coordinates":[25.64846,60.3966]},"properties":{"n":"Porvoo","s":"PRV","c":"FI"}},{"type":"Feature","geometry":{"type":"Point","coordinates":[25.03668,60.27631]},"properties":{"n":"Puistola","s":"PLA","c":"FI"}},{"type":"Feature","geometry":{"type":"Point","coordinates":[24.99329,60.24222]},"properties":{"n":"Pukinmäki","s":"PMK","c":"FI"}},{"type":"Feature","geometry":{"type":"Point","coordinates":[29.38235,61.76115]},"properties":{"n":"Punkaharju","s":"PUN","c":"FI"}},{"type":"Feature","geometry":{"type":"Point","coordinates":[25.05023,60.50033]},"properties":{"n":"Purola","s":"PUR","c":"FI"}},{"type":"Feature","geometry":{"type":"Point","coordinates":[25.98261,63.68294]},"properties":{"n":"Pyhäsalmi","s":"PHÄ","c":"FI"}},{"type":"Feature","geometry":{"type":"Point","coordinates":[22.79036,63.59538]},"properties":{"n":"Pännäinen","s":"PNÄ","c":"FI"}},{"type":"Feature","geometry":{"type":"Point","coordinates":[28.92453,61.86229]},"properties":{"n":"Pääskylahti","s":"PKY","c":"FI"}},{"type":"Feature","geometry":{"type":"Point","coordinates":[25.06867,60.33287]},"properties":{"n":"Rekola","s":"RKL","c":"FI"}},{"type":"Feature","geometry":{"type":"Point","coordinates":[29.29429,61.80331]},"properties":{"n":"Retretti","s":"REE","c":"FI"}},{"type":"Feature","geometry":{"type":"Point","coordinates":[24.78124,60.73608]},"properties":{"n":"Riihimäki","s":"RI","c":"FI"}},{"type":"Feature","geometry":{"type":"Point","coordinates":[25.70533,66.49768]},"properties":{"n":"Rovaniemi","s":"ROI","c":"FI"}},{"type":"Feature","geometry":{"type":"Point","coordinates":[26.88649,63.60205]},"properties":{"n":"Runni","s":"RNN","c":"FI"}},{"type":"Feature","geometry":{"type":"Point","coordinates":[25.0982,64.66037]},"properties":{"n":"Ruukki","s":"RKI","c":"FI"}},{"type":"Feature","geometry":{"type":"Point","coordinates":[24.75819,60.81805]},"properties":{"n":"Ryttylä","s":"RY","c":"FI"}},{"type":"Feature","geometry":{"type":"Point","coordinates":[23.12145,60.38478]},"properties":{"n":"Salo","s":"SLO","c":"FI"}},{"type":"Feature","geometry":{"type":"Point","coordinates":[23.12105,59.87501]},"properties":{"n":"Santala","s":"STA","c":"FI"}},{"type":"Feature","geometry":{"type":"Point","coordinates":[25.06557,60.4873]},"properties":{"n":"Saunakallio","s":"SAU","c":"FI"}},{"type":"Feature","geometry":{"type":"Point","coordinates":[25.0978,60.3813]},"properties":{"n":"Savio","s":"SAV","c":"FI"}},{"type":"Feature","geometry":{"type":"Point","coordinates":[28.88827,61.8689]},"properties":{"n":"Savonlinna","s":"SL","c":"FI"}},{"type":"Feature","geometry":{"type":"Point","coordinates":[22.84422,62.79202]},"properties":{"n":"Seinäjoki","s":"SK","c":"FI"}},{"type":"Feature","geometry":{"type":"Point","coordinates":[27.66656,63.07495]},"properties":{"n":"Siilinjärvi","s":"SIJ","c":"FI"}},{"type":"Feature","geometry":{"type":"Point","coordinates":[29.3717,61.42479]},"properties":{"n":"Simpele","s":"SPL","c":"FI"}},{"type":"Feature","geometry":{"type":"Point","coordinates":[24.22167,60.14065]},"properties":{"n":"Siuntio","s":"STI","c":"FI"}},{"type":"Feature","geometry":{"type":"Point","coordinates":[23.3124,59.92667]},"properties":{"n":"Skogby","s":"SGY","c":"FI"}},{"type":"Feature","geometry":{"type":"Point","coordinates":[27.42231,63.86462]},"properties":{"n":"Sukeva","s":"SKV","c":"FI"}},{"type":"Feature","geometry":{"type":"Point","coordinates":[27.12449,62.62371]},"properties":{"n":"Suonenjoki","s":"SNJ","c":"FI"}},{"type":"Feature","geometry":{"type":"Point","coordinates":[23.4435,59.97955]},"properties":{"n":"Tammisaari","s":"TMS","c":"FI"}},{"type":"Feature","geometry":{"type":"Point","coordinates":[23.77345,61.49824]},"properties":{"n":"Tampere","s":"TPE","c":"FI"}},{"type":"Feature","geometry":{"type":"Point","coordinates":[25.03003,60.2639]},"properties":{"n":"Tapanila","s":"TNA","c":"FI"}},{"type":"Feature","geometry":{"type":"Point","coordinates":[26.9547,60.57333]},"properties":{"n":"Tavastila","s":"TSL","c":"FI"}},{"type":"Feature","geometry":{"type":"Point","coordinates":[22.17146,63.00077]},"properties":{"n":"Tervajoki","s":"TK","c":"FI"}},{"type":"Feature","geometry":{"type":"Point","coordinates":[24.77229,66.08181]},"properties":{"n":"Tervola","s":"TRV","c":"FI"}},{"type":"Feature","geometry":{"type":"Point","coordinates":[23.63027,61.50336]},"properties":{"n":"Tesoma","s":"TSO","c":"FI"}},{"type":"Feature","geometry":{"type":"Point","coordinates":[25.04406,60.29217]},"properties":{"n":"Tikkurila","s":"TKL","c":"FI"}},{"type":"Feature","geometry":{"type":"Point","coordinates":[23.8609,61.17061]},"properties":{"n":"Toijala","s":"TL","c":"FI"}},{"type":"Feature","geometry":{"type":"Point","coordinates":[24.47272,60.11856]},"properties":{"n":"Tolsa","s":"TOL","c":"FI"}},{"type":"Feature","geometry":{"type":"Point","coordinates":[24.16358,65.84534]},"properties":{"n":"Tornio","s":"TOR","c":"FI"}},{"type":"Feature","geometry":{"type":"Point","coordinates":[24.18508,65.85082]},"properties":{"n":"Tornio-Itäinen","s":"TRI","c":"FI"}},{"type":"Feature","geometry":{"type":"Point","coordinates":[24.68177,60.20605]},"properties":{"n":"Tuomarila","s":"TRL","c":"FI"}},{"type":"Feature","geometry":{"type":"Point","coordinates":[24.63865,60.91839]},"properties":{"n":"Turenki","s":"TU","c":"FI"}},{"type":"Feature","geometry":{"type":"Point","coordinates":[22.26087,60.45649]},"properties":{"n":"Turku","s":"TKU","c":"FI"}},{"type":"Feature","geometry":{"type":"Point","coordinates":[22.22689,60.43424]},"properties":{"n":"Turku satama","s":"TUS","c":"FI"}},{"type":"Feature","geometry":{"type":"Point","coordinates":[23.72232,62.60535]},"properties":{"n":"Tuuri","s":"TUU","c":"FI"}},{"type":"Feature","geometry":{"type":"Point","coordinates":[30.2415,62.91248]},"properties":{"n":"Uimaharju","s":"UIM","c":"FI"}},{"type":"Feature","geometry":{"type":"Point","coordinates":[26.41356,64.75893]},"properties":{"n":"Utajärvi","s":"UTJ","c":"FI"}},{"type":"Feature","geometry":{"type":"Point","coordinates":[25.99397,60.92772]},"properties":{"n":"Uusikylä","s":"UKÄ","c":"FI"}},{"type":"Feature","geometry":{"type":"Point","coordinates":[26.8427,64.55801]},"properties":{"n":"Vaala","s":"VAA","c":"FI"}},{"type":"Feature","geometry":{"type":"Point","coordinates":[21.62182,63.09779]},"properties":{"n":"Vaasa","s":"VS","c":"FI"}},{"type":"Feature","geometry":{"type":"Point","coordinates":[28.3032,60.86384]},"properties":{"n":"Vainikkala","s":"VNA","c":"FI"}},{"type":"Feature","geometry":{"type":"Point","coordinates":[24.87583,60.22203]},"properties":{"n":"Valimo","s":"VMO","c":"FI"}},{"type":"Feature","geometry":{"type":"Point","coordinates":[22.88766,61.34952]},"properties":{"n":"Vammala","s":"VMA","c":"FI"}},{"type":"Feature","geometry":{"type":"Point","coordinates":[24.84797,60.28612]},"properties":{"n":"Vantaankoski","s":"VKS","c":"FI"}},{"type":"Feature","geometry":{"type":"Point","coordinates":[27.87342,62.31239]},"properties":{"n":"Varkaus","s":"VAR","c":"FI"}},{"type":"Feature","geometry":{"type":"Point","coordinates":[24.84372,60.29505]},"properties":{"n":"Vehkala","s":"VEH","c":"FI"}},{"type":"Feature","geometry":{"type":"Point","coordinates":[24.99362,64.48451]},"properties":{"n":"Vihanti","s":"VTI","c":"FI"}},{"type":"Feature","geometry":{"type":"Point","coordinates":[29.02928,62.38074]},"properties":{"n":"Vihtari","s":"VIH","c":"FI"}},{"type":"Feature","geometry":{"type":"Point","coordinates":[23.77068,61.21179]},"properties":{"n":"Viiala","s":"VIA","c":"FI"}},{"type":"Feature","geometry":{"type":"Point","coordinates":[29.23717,62.64169]},"properties":{"n":"Viinijärvi","s":"VNJ","c":"FI"}},{"type":"Feature","geometry":{"type":"Point","coordinates":[25.83372,60.94638]},"properties":{"n":"Villähde","s":"VLH","c":"FI"}},{"type":"Feature","geometry":{"type":"Point","coordinates":[24.50696,62.02589]},"properties":{"n":"Vilppula","s":"VLP","c":"FI"}},{"type":"Feature","geometry":{"type":"Point","coordinates":[29.99331,63.15264]},"properties":{"n":"Vuonislahti","s":"VSL","c":"FI"}},{"type":"Feature","geometry":{"type":"Point","coordinates":[22.53273,62.9178]},"properties":{"n":"Ylistaro","s":"YST","c":"FI"}},{"type":"Feature","geometry":{"type":"Point","coordinates":[23.68251,66.32444]},"properties":{"n":"Ylitornio","s":"YTR","c":"FI"}},{"type":"Feature","geometry":{"type":"Point","coordinates":[24.54059,64.0719]},"properties":{"n":"Ylivieska","s":"YV","c":"FI"}},{"type":"Feature","geometry":{"type":"Point","coordinates":[24.06404,62.55327]},"properties":{"n":"Ähtäri","s":"ÄHT","c":"FI"}}]}